DUBAISAT-1              
1 35682U 09041B   26169.37787558  .00000586  00000+0  94288-4 0  9995
2 35682  98.0054 302.6225 0011618  70.3532 289.8930 14.75124116905273
OCEANSAT-2              
1 35931U 09051A   26169.55777653 -.00000164  00000+0 -86333-4 0  9994
2 35931  98.2324 156.2726 0015308 231.8435 128.1353 13.99664122879520
WORLDVIEW-2 (WV-2)      
1 35946U 09055A   26169.55551935  .00000088  00000+0  43663-4 0  9999
2 35946  98.4737 242.9862 0003789 203.3016 156.8000 14.37899787875847
SMOS                    
1 36036U 09059A   26169.50994505  .00000175  00000+0  69842-4 0  9997
2 36036  98.4425 356.8254 0001322  88.2571 271.8768 14.39773176873649
YAOGAN-7                
1 36110U 09069A   26169.44277609  .00000382  00000+0  60008-4 0  9998
2 36110  98.0070  55.3021 0025504  37.8657 322.4341 14.78011013889814
TANDEM-X                
1 36605U 10030A   26168.58693710  .00000287  00000+0  16858-4 0  9994
2 36605  97.4451 176.2891 0001888  87.7615 272.3836 15.19150445886700
CARTOSAT-2B             
1 36795U 10035A   26169.62541414  .00000453  00000+0  68853-4 0  9995
2 36795  97.9946 220.1663 0011260 179.1262 180.9970 14.78662596860062
YAOGAN-10               
1 36834U 10038A   26169.64083421  .00001530  00000+0  18410-3 0  9993
2 36834  97.8968 193.0337 0001685  88.3360  24.7638 14.85353051857428
COSMO-SKYMED 4          
1 37216U 10060A   26169.59143598 -.00000028  00000+0  30218-5 0  9993
2 37216  97.8880 353.1699 0001358  82.7678 277.3690 14.82152651844771
RESOURCESAT-2           
1 37387U 11015A   26169.56704357  .00000085  00000+0  59166-4 0  9990
2 37387  98.7644 236.9994 0010241 251.0749 108.9318 14.21606876786378
HAIYANG-2A              
1 37781U 11043A   26169.42157669  .00000079  00000+0  12963-3 0  9998
2 37781  99.3389 172.0707 0005822  89.6556 270.5260 13.74350636746826
RASAT                   
1 37791U 11044D   26169.61737250  .00000315  00000+0  63150-4 0  9999
2 37791  98.0581 260.9923 0020291 184.1508 283.3083 14.68167328793396
SRMSAT                  
1 37841U 11058D   26169.37117841  .00000354  00000+0  48168-4 0  9996
2 37841  19.9726  52.3001 0011756 216.7081 303.9733 14.11575778757985
PLEIADES 1A             
1 38012U 11076F   26169.65314034  .00000520  00000+0  12158-3 0  9995
2 38012  98.1977 244.7367 0001671  93.7598  63.9350 14.58572878772205
ZIYUAN 1-02C (ZY 1-02C) 
1 38038U 11079A   26169.62495786  .00000569  00000+0  20153-3 0  9994
2 38038  98.4071 236.9037 0005431 311.7924 207.5106 14.38216778759417
ARIRANG-3 (KOMPSAT-3)   
1 38338U 12025B   26169.60661376  .00000327  00000+0  74138-4 0  9992
2 38338  98.1171 127.0421 0006720 105.8328 254.3615 14.62207188751551
EXACTVIEW-1 (ADS-1B)    
1 38709U 12039C   26169.57490623  .00000086  00000+0  56572-4 0  9994
2 38709  98.9780 286.9964 0011243 162.5437 197.6130 14.24984908722909
SPOT 6                  
1 38755U 12047A   26169.63845418  .00000487  00000+0  11458-3 0  9995
2 38755  98.2118 236.9307 0001512  91.0017 269.1355 14.58564837733269
PLEIADES 1B             
1 39019U 12068A   26169.58877410  .00000491  00000+0  11542-3 0  9992
2 39019  98.1948 244.6215 0001682  90.3066 269.8326 14.58562373721053
GOKTURK 2               
1 39030U 12073A   26169.57267992  .00000217  00000+0  38778-4 0  9995
2 39030  97.6811   6.9340 0001521  55.7846 304.3508 14.75543395724715
LANDSAT 8               
1 39084U 13008A   26169.60415123  .00000242  00000+0  63736-4 0  9998
2 39084  98.2302 239.7226 0001360  93.6623 266.4731 14.57095358698100
SARAL                   
1 39086U 13009A   26169.57718734  .00000059  00000+0  37607-4 0  9995
2 39086  98.5557 356.1267 0000665 299.5401  60.5716 14.32856247695809
GAOFEN-1                
1 39150U 13018A   26169.62165155  .00000542  00000+0  84853-4 0  9998
2 39150  97.9094 241.6606 0015681 261.4713  98.4720 14.76538110708458
VNREDSAT 1              
1 39160U 13021B   26169.59177037  .00000619  00000+0  12447-3 0  9995
2 39160  97.9076 222.9545 0001746  87.2529 272.8875 14.64858921700496
ARIRANG-5 (KOMPSAT-5)   
1 39227U 13042A   26169.56279767  .00000444  00000+0  36042-4 0  9996
2 39227  97.6200 356.2436 0005425 117.1602 243.0178 15.04493989704066
SKYSAT-A                
1 39418U 13066C   26169.38165462  .00001913  00000+0  11156-3 0  9990
2 39418  97.3811 218.7409 0020019 313.1240  46.8317 15.12980718688668
DUBAISAT-2              
1 39419U 13066D   26169.59475225  .00002585  00000+0  16188-3 0  9991
2 39419  97.4557 159.7024 0012141  35.8274 324.3768 15.10187528686608
GPM-CORE                
1 39574U 14009C   26169.63386890  .00009395  00000+0  20561-3 0  9991
2 39574  64.9726 303.2815 0011784 252.0376 107.9480 15.44597955698031
SENTINEL-1A             
1 39634U 14016A   26169.60177979  .00000125  00000+0  36250-4 0  9994
2 39634  98.1774 177.1142 0001415  80.2237 279.9123 14.59199542650226
KAZEOSAT 1              
1 39731U 14024A   26169.61753941  .00000279  00000+0  97821-4 0  9992
2 39731  98.3206 242.0295 0001338  75.1523 284.9815 14.42081210638765
