OBJECT_NAME,OBJECT_ID,EPOCH,MEAN_MOTION,ECCENTRICITY,INCLINATION,RA_OF_ASC_NODE,ARG_OF_PERICENTER,MEAN_ANOMALY,EPHEMERIS_TYPE,CLASSIFICATION_TYPE,NORAD_CAT_ID,ELEMENT_SET_NO,REV_AT_EPOCH,BSTAR,MEAN_MOTION_DOT,MEAN_MOTION_DDOT
DUBAISAT-1,2009-041B,2026-06-18T09:04:08.450112,14.75124116,.00116187,98.0054,302.6225,70.3532,289.8930,0,U,35682,999,90527,.942882E-4,.586E-5,0
OCEANSAT-2,2009-051A,2026-06-18T13:23:11.892192,13.99664122,.00153087,98.2324,156.2726,231.8435,128.1353,0,U,35931,999,87952,-.86333272E-4,-.164E-5,0
WORLDVIEW-2 (WV-2),2009-055A,2026-06-18T13:19:56.871840,14.37899787,.00037898,98.4737,242.9862,203.3016,156.8000,0,U,35946,999,87584,.43662652E-4,.88E-6,0
SMOS,2009-059A,2026-06-18T12:14:19.252320,14.39773176,.0001322,98.4425,356.8254,88.2571,271.8768,0,U,36036,999,87364,.69842207E-4,.175E-5,0
YAOGAN-7,2009-069A,2026-06-18T10:37:35.854176,14.78011013,.00255042,98.0070,55.3021,37.8657,322.4341,0,U,36110,999,88981,.60008451E-4,.382E-5,0
TANDEM-X,2010-030A,2026-06-17T14:05:11.365440,15.19150445,.00018883,97.4451,176.2891,87.7615,272.3836,0,U,36605,999,88670,.16858258E-4,.287E-5,0
CARTOSAT-2B,2010-035A,2026-06-18T15:00:35.781696,14.78662596,.001126,97.9946,220.1663,179.1262,180.9970,0,U,36795,999,86006,.68853476E-4,.453E-5,0
YAOGAN-10,2010-038A,2026-06-18T15:22:48.075744,14.85353051,.00016856,97.8968,193.0337,88.3360,24.7638,0,U,36834,999,85742,.18409646E-3,.153E-4,0
COSMO-SKYMED 4,2010-060A,2026-06-18T14:11:40.068672,14.82152651,.00013583,97.8880,353.1699,82.7678,277.3690,0,U,37216,999,84477,.3021836E-5,-.28E-6,0
RESOURCESAT-2,2011-015A,2026-06-18T13:36:32.564448,14.21606876,.00102419,98.7644,236.9994,251.0749,108.9318,0,U,37387,999,78637,.59165754E-4,.85E-6,0
HAIYANG-2A,2011-043A,2026-06-18T10:07:04.226016,13.74350636,.00058224,99.3389,172.0707,89.6556,270.5260,0,U,37781,999,74682,.12963247E-3,.79E-6,0
RASAT,2011-044D,2026-06-18T14:49:00.984000,14.68167328,.00202919,98.0581,260.9923,184.1508,283.3083,0,U,37791,999,79339,.63149625E-4,.315E-5,0
SRMSAT,2011-058D,2026-06-18T08:54:29.814624,14.11575778,.00117562,19.9726,52.3001,216.7081,303.9733,0,U,37841,999,75798,.48167787E-4,.354E-5,0
PLEIADES 1A,2011-076F,2026-06-18T15:40:31.325376,14.58572878,.00016715,98.1977,244.7367,93.7598,63.9350,0,U,38012,999,77220,.12157502E-3,.52E-5,0
ZIYUAN 1-02C (ZY 1-02C),2011-079A,2026-06-18T14:59:56.359104,14.38216778,.0005431,98.4071,236.9037,311.7924,207.5106,0,U,38038,999,75941,.20153042E-3,.569E-5,0
ARIRANG-3 (KOMPSAT-3),2012-025B,2026-06-18T14:33:31.428864,14.62207188,.00067201,98.1171,127.0421,105.8328,254.3615,0,U,38338,999,75155,.74137601E-4,.327E-5,0
EXACTVIEW-1 (ADS-1B),2012-039C,2026-06-18T13:47:51.898272,14.24984908,.00112435,98.9780,286.9964,162.5437,197.6130,0,U,38709,999,72290,.5657249E-4,.86E-6,0
SPOT 6,2012-047A,2026-06-18T15:19:22.441152,14.58564837,.00015124,98.2118,236.9307,91.0017,269.1355,0,U,38755,999,73326,.11458372E-3,.487E-5,0
PLEIADES 1B,2012-068A,2026-06-18T14:07:50.082240,14.58562373,.00016824,98.1948,244.6215,90.3066,269.8326,0,U,39019,999,72105,.11542137E-3,.491E-5,0
GOKTURK 2,2012-073A,2026-06-18T13:44:39.545088,14.75543395,.00015211,97.6811,6.9340,55.7846,304.3508,0,U,39030,999,72471,.38777893E-4,.217E-5,0
LANDSAT 8,2013-008A,2026-06-18T14:29:58.666272,14.57095358,.00013603,98.2302,239.7226,93.6623,266.4731,0,U,39084,999,69810,.63736305E-4,.242E-5,0
SARAL,2013-009A,2026-06-18T13:51:08.986176,14.32856247,.00006657,98.5557,356.1267,299.5401,60.5716,0,U,39086,999,69580,.37606669E-4,.59E-6,0
GAOFEN-1,2013-018A,2026-06-18T14:55:10.693920,14.76538110,.00156814,97.9094,241.6606,261.4713,98.4720,0,U,39150,999,70845,.84852659E-4,.542E-5,0
VNREDSAT 1,2013-021B,2026-06-18T14:12:08.959968,14.64858921,.00017463,97.9076,222.9545,87.2529,272.8875,0,U,39160,999,70049,.12447406E-3,.619E-5,0
ARIRANG-5 (KOMPSAT-5),2013-042A,2026-06-18T13:30:25.718688,15.04493989,.00054258,97.6200,356.2436,117.1602,243.0178,0,U,39227,999,70406,.3604216E-4,.444E-5,0
SKYSAT-A,2013-066C,2026-06-18T09:09:34.959168,15.12980718,.00200196,97.3811,218.7409,313.1240,46.8317,0,U,39418,999,68866,.11155961E-3,.1913E-4,0
DUBAISAT-2,2013-066D,2026-06-18T14:16:26.594400,15.10187528,.00121416,97.4557,159.7024,35.8274,324.3768,0,U,39419,999,68660,.16187519E-3,.2585E-4,0
GPM-CORE,2014-009C,2026-06-18T15:12:46.272960,15.44597955,.00117848,64.9726,303.2815,252.0376,107.9480,0,U,39574,999,69803,.20560598E-3,.9395E-4,0
SENTINEL-1A,2014-016A,2026-06-18T14:26:33.773856,14.59199542,.00014154,98.1774,177.1142,80.2237,279.9123,0,U,39634,999,65022,.36250466E-4,.125E-5,0
KAZEOSAT 1,2014-024A,2026-06-18T14:49:15.405024,14.42081210,.00013381,98.3206,242.0295,75.1523,284.9815,0,U,39731,999,63876,.97821469E-4,.279E-5,0
